PROMETHEUS 2-3          
1 41855U 16067H   25265.54652368  .00132794  00000+0  15776-2 0  9995
2 41855  98.0504 131.0370 0003138 196.5084 163.6070 15.60715291486709
CORVUS BC2              
1 42846U 17042X   25265.54816641  .00007469  00000+0  54844-3 0  9996
2 42846  97.3828  73.1906 0013116 309.0092  50.9965 15.03663563446808
CORVUS BC1              
1 42847U 17042Y   25265.44870041  .00005771  00000+0  42233-3 0  9993
2 42847  97.3855  73.7158 0010868 285.9657  74.0372 15.03908832446815
MIRATA                  
1 43015U 17073C   25265.16829182  .00292763  00000+0  21640-2 0  9991
2 43015  97.5183 165.8545 0052546  64.0879 296.5785 15.70259489427081
MAKERSAT 0              
1 43016U 17073D   25265.41442089  .00024244  00000+0  90203-3 0  9996
2 43016  97.5004 142.7008 0139887 135.6166 225.6382 15.18698858425634
SIRION PATHFINDER-2     
1 43759U 18099B   25265.39155813  .00007816  00000+0  47228-3 0  9997
2 43759  97.4670 315.8112 0010749 138.4996 221.7053 15.10901711372137
CORVUS BC4              
1 43767U 18099K   25265.06779106  .00007964  00000+0  50332-3 0  9991
2 43767  97.4490 310.8170 0008506 194.7477 165.3506 15.09273391371917
SPACEBEE-7              
1 43816U 18099BL  25265.45153432  .00068091  00000+0  15140-2 0  9992
2 43816  97.4855 338.0575 0005908 106.9994 253.1901 15.43406651372933
SHIELDS 1               
1 43850U 18104B   25265.21192717  .00063917  00000+0  55234-3 0  9991
2 43850  85.0127 322.4964 0007279 105.0505 255.1568 15.68950800377816
DUCHIFAT-3              
1 44854U 19089C   25265.08348050  .00132672  00000+0  16797-2 0  9992
2 44854  36.9389  45.9615 0006199  51.0305 309.1006 15.58120071319253
M2 PATHFINDER           
1 45727U 20037E   25265.49957181  .00004050  00000+0  30728-3 0  9992
2 45727  97.8180  88.9881 0011244 347.4581  12.6362 15.02756750285267
NETSAT-4                
1 46504U 20068U   25265.53413009  .00022584  00000+0  70834-3 0  9995
2 46504  97.8546 249.5349 0006866 171.4570 188.6790 15.33045836274614
NETSAT-3                
1 46505U 20068V   25265.49862960  .00023675  00000+0  77810-3 0  9998
2 46505  97.8553 248.1905 0006020 182.8418 177.2789 15.31539882274557
NETSAT-1                
1 46506U 20068W   25265.50593631  .00016922  00000+0  65808-3 0  9998
2 46506  97.8588 245.2141 0005075 204.7315 155.3680 15.26102343274352
NETSAT-2                
1 46507U 20068X   25265.47804904  .00025215  00000+0  79313-3 0  9994
2 46507  97.8549 248.9173 0004047 190.0390 170.0771 15.32945044274549
WILDTRACKCUBE-SIMBA     
1 47941U 21022K   25265.52745957  .00066923  00000+0  10898-2 0  9999
2 47941  97.4088 172.8240 0004951 299.0081  61.0675 15.52411844249437
LEDSAT                  
1 49069U 21073D   25265.50609478  .00349491  00000+0  14353-2 0  9997
2 49069  97.3761 352.7768 0001808 351.8550   8.2691 15.85115982227894
GREENCUBE (IO-117)      
1 53109U 22080E   25262.37691399 -.00000003  00000+0  00000+0 0  9996
2 53109  70.1547  32.4043 0008567 347.3364  12.7080  6.42583624 74667
SITRO-AIS 5 (KATYS)     
1 57176U 23091L   25265.51360687  .00017450  00000+0  77208-3 0  9990
2 57176  97.5475 322.6982 0012309 329.2195  30.8318 15.21671277123528
SITRO-AIS 6 (CHIRKIN)   
1 57192U 23091AC  25265.44481977  .00010743  00000+0  48212-3 0  9997
2 57192  97.5475 322.6149 0011996 331.3591  28.6984 15.21306933123513
SITRO-AIS 8 (ANOKHIN)   
1 57193U 23091AD  25265.50878429  .00018494  00000+0  78219-3 0  9998
2 57193  97.5472 323.4291 0011614 327.8862  32.1666 15.23201884123570
SITRO-AIS 7 (FARTUSHNIY)
1 57194U 23091AE  25265.53956722  .00009473  00000+0  42713-3 0  9992
2 57194  97.5475 322.6311 0011906 332.2773  27.7827 15.21182083123524
SITRO-AIS 10 (BURDAEV)  
1 57199U 23091AK  25265.50972441  .00022628  00000+0  85507-3 0  9995
2 57199  97.5484 326.3388 0007221 308.0668  51.9919 15.26973865123750
SITRO-AIS 9 (SHCHUKIN)  
1 57201U 23091AM  25265.54104525  .00022514  00000+0  85624-3 0  9997
2 57201  97.5482 326.2480 0007255 308.6722  51.3867 15.26762823123754
SITRO-AIS 12 (SMIRENNIY)
1 57204U 23091AQ  25265.50916681  .00022602  00000+0  85426-3 0  9998
2 57204  97.5492 326.5440 0007056 300.7451  59.3093 15.26968540123762
SITRO-AIS 11 (SHEFFER)  
1 57208U 23091AU  25265.51276371  .00024017  00000+0  90080-3 0  9992
2 57208  97.5490 326.6687 0007012 301.1297  58.9253 15.27210311123774
ROBUSTA-1E (ENSO)       
1 58470U 23185J   25265.04603465  .00190961  00000+0  14362-2 0  9994
2 58470  97.3613 344.4561 0002477  63.9501 296.2017 15.71977118101349
SITRO-AIS 25            
1 59066U 24039R   25265.52452407  .00011845  00000+0  98270-3 0  9990
2 59066  95.3869  51.5032 0153355 181.5066 178.5718 14.90067953 84815
SITRO-AIS 26            
1 59067U 24039S   25265.56093590  .00013326  00000+0  11090-2 0  9999
2 59067  95.3872  51.4725 0153558 181.6281 178.4465 14.89914071 84811
SITRO-AIS 27            
1 59068U 24039T   25265.66693851  .00013032  00000+0  10768-2 0  9992
2 59068  95.3869  51.7065 0152822 180.4945 179.6154 14.90257674 84847
SITRO-AIS 28            
1 59071U 24039U   25265.65119433  .00012735  00000+0  10516-2 0  9994
2 59071  95.3874  51.7281 0152659 180.4174 179.6949 14.90301724 84847
GRBBETA                 
1 60237U 24128C   25265.45001013  .00007943  00000+0  57351-3 0  9995
2 60237  61.9906  73.6752 0056845  80.0432 280.7069 15.03544812 65967
OOV-CUBE (TUBSAT-30)    
1 60240U 24128F   25265.55307936  .00005232  00000+0  41103-3 0  9990
2 60240  61.9949  77.6098 0058088  77.3225 283.4351 15.00843929 65912
ROBUSTA-3A (MEDITERRAN*)
1 60243U 24128J   25265.19811371  .00011106  00000+0  74219-3 0  9997
2 60243  61.9871  72.3486 0056123  74.2530 286.4743 15.06137215 65979
LASARSAT                
1 62391U 24247Q   25265.41972835  .00027145  00000+0  94532-3 0  9993
2 62391  44.9793 307.6351 0008237 308.5254  51.4890 15.29226686 42090
CROCUBE                 
1 62394U 24247T   25265.13481943  .00029894  00000+0  10287-2 0  9997
2 62394  44.9776 308.8470 0009424 313.5338  46.4762 15.29561049 42050
